DUPLEX                  
1 66906U 98067XS  26087.84323783  .00033310  00000+0  44902-3 0  9999
2 66906  51.6303 333.5600 0002985 199.9442 160.1434 15.57497317 18118
ISS OBJECT XT           
1 66907U 98067XT  26087.90080188  .00241180  00000+0  14557-2 0  9994
2 66907  51.6244 327.1576 0005997 204.4766 155.5950 15.76367324 18207
ISS OBJECT XU           
1 66908U 98067XU  26087.89699404  .00248719  00000+0  14825-2 0  9993
2 66908  51.6247 327.1275 0006222 204.3125 155.7582 15.76627027 18209
SILVERSAT               
1 66909U 98067XV  26087.91380077  .00356924  00000+0  16516-2 0  9997
2 66909  51.6213 325.7273 0007041 210.4604 149.5990 15.81917197 18227
ISS OBJECT XW           
1 66910U 98067XW  26087.84453985  .00202838  00000+0  13129-2 0  9991
2 66910  51.6233 327.5249 0006302 201.5350 158.5385 15.74880247 18193
ISS OBJECT XX           
1 66911U 98067XX  26087.91807069  .00546382  00000+0  17928-2 0  9992
2 66911  51.6187 324.2195 0008876 215.1159 144.9262 15.88587142 18233
ISS OBJECT XY           
1 66912U 98067XY  26087.85854804  .00114101  00000+0  10162-2 0  9998
2 66912  51.6270 329.8999 0004276 200.6953 159.3871 15.67599679 18153
KNACKSAT-2              
1 67683U 98067XZ  26087.84390624  .00045155  00000+0  70231-3 0  9994
2 67683  51.6323 336.5646 0010004 255.1936 104.7946 15.53408087  7763
CORAL                   
1 67684U 98067YA  26087.90436496  .00094825  00000+0  12483-2 0  9992
2 67684  51.6304 335.4688 0012771 245.0966 114.8699 15.57580097  7786
GXIBA-1                 
1 67685U 98067YB  26087.89821257  .00051175  00000+0  77797-3 0  9995
2 67685  51.6321 336.1777 0011963 252.5116 107.4567 15.53958389  7775
UITMSAT-2               
1 67686U 98067YC  26087.88356242  .00059365  00000+0  87080-3 0  9997
2 67686  51.6324 336.0822 0009061 224.2603 135.7664 15.54908203  7775
HMU-SAT2                
1 67687U 98067YD  26087.90315062  .00050682  00000+0  77881-3 0  9997
2 67687  51.6326 336.2133 0008619 227.1165 132.9102 15.53705235  7694
LEOPARD                 
1 67688U 98067YE  26087.89024430  .00054959  00000+0  82004-3 0  9996
2 67688  51.6332 336.1274 0008815 224.8426 135.1853 15.54477130  7698
CREW DRAGON 12          
1 67796U 26031A   26087.87455012  .00011057  00000+0  21128-3 0  9992
2 67796  51.6344 337.5169 0006219 244.1555 115.8792 15.48616916559265
PROGRESS-MS 33          
1 68319U 26058A   26087.87455012  .00011057  00000+0  21128-3 0  9993
2 68319  51.6344 337.5169 0006219 244.1555 115.8792 15.48616916   707
